{
  "type": "FeatureCollection",
  "name": "india_states",
  "crs": { "type": "name", "properties": { "name": "urn:ogc:def:crs:OGC:1.3:CRS84" } },
  "features": [
    {
      "type": "Feature",
      "properties": { "code": "LA", "name": "Ladakh" },
      "geometry": {
        "type": "Polygon",
        "coordinates": [[[76.7, 36.1], [77.5, 35.5], [78.9, 35.5], [79.9, 34.3], [79.3, 32.7], [77.8, 32.3], [76.5, 33.5], [75.5, 34.5], [76.7, 36.1]]]
      }
    },
    {
      "type": "Feature",
      "properties": { "code": "JK", "name": "Jammu & Kashmir" },
      "geometry": {
        "type": "Polygon",
        "coordinates": [[[73.5, 34.7], [75.5, 34.5], [76.5, 33.5], [75.8, 32.3], [74.3, 32.2], [73.8, 33.2], [73.5, 34.7]]]
      }
    },
    {
      "type": "Feature",
      "properties": { "code": "HP", "name": "Himachal Pradesh" },
      "geometry": {
        "type": "Polygon",
        "coordinates": [[[75.8, 33.2], [77.8, 33.2], [78.8, 31.8], [77.6, 30.4], [75.6, 31.2], [75.8, 33.2]]]
      }
    },
    {
      "type": "Feature",
      "properties": { "code": "PB", "name": "Punjab" },
      "geometry": {
        "type": "Polygon",
        "coordinates": [[[74.5, 32.5], [75.8, 32.2], [76.8, 31.1], [76.3, 29.6], [74.3, 29.9], [73.9, 31.4], [74.5, 32.5]]]
      }
    },
    {
      "type": "Feature",
      "properties": { "code": "CH", "name": "Chandigarh" },
      "geometry": {
        "type": "Polygon",
        "coordinates": [[[76.73, 30.78], [76.83, 30.78], [76.83, 30.70], [76.73, 30.70], [76.73, 30.78]]]
      }
    },
    {
      "type": "Feature",
      "properties": { "code": "UT", "name": "Uttarakhand" },
      "geometry": {
        "type": "Polygon",
        "coordinates": [[[77.6, 31.4], [79.2, 31.4], [81.0, 30.2], [80.1, 28.7], [77.7, 29.5], [77.6, 31.4]]]
      }
    },
    {
      "type": "Feature",
      "properties": { "code": "HR", "name": "Haryana" },
      "geometry": {
        "type": "Polygon",
        "coordinates": [[[74.5, 30.0], [76.9, 30.5], [77.6, 29.2], [77.3, 27.8], [75.2, 27.7], [74.5, 30.0]]]
      }
    },
    {
      "type": "Feature",
      "properties": { "code": "DL", "name": "Delhi NCR" },
      "geometry": {
        "type": "Polygon",
        "coordinates": [[[76.84, 28.88], [77.34, 28.88], [77.34, 28.41], [76.84, 28.41], [76.84, 28.88]]]
      }
    },
    {
      "type": "Feature",
      "properties": { "code": "RJ", "name": "Rajasthan" },
      "geometry": {
        "type": "Polygon",
        "coordinates": [[[69.5, 27.0], [73.5, 30.2], [75.2, 27.7], [77.3, 27.8], [78.2, 26.8], [76.8, 24.2], [74.5, 24.0], [71.0, 24.6], [69.5, 27.0]]]
      }
    },
    {
      "type": "Feature",
      "properties": { "code": "UP", "name": "Uttar Pradesh" },
      "geometry": {
        "type": "Polygon",
        "coordinates": [[[77.3, 29.5], [80.1, 28.7], [84.6, 27.3], [84.4, 24.6], [82.5, 24.0], [78.2, 24.4], [77.3, 27.8], [77.3, 29.5]]]
      }
    },
    {
      "type": "Feature",
      "properties": { "code": "BR", "name": "Bihar" },
      "geometry": {
        "type": "Polygon",
        "coordinates": [[[83.3, 27.5], [88.2, 26.5], [87.8, 25.2], [83.3, 24.5], [83.3, 27.5]]]
      }
    },
    {
      "type": "Feature",
      "properties": { "code": "SK", "name": "Sikkim" },
      "geometry": {
        "type": "Polygon",
        "coordinates": [[[88.1, 28.1], [88.9, 28.1], [88.9, 27.1], [88.1, 27.1], [88.1, 28.1]]]
      }
    },
    {
      "type": "Feature",
      "properties": { "code": "WB", "name": "West Bengal" },
      "geometry": {
        "type": "Polygon",
        "coordinates": [[[88.2, 27.2], [89.8, 26.5], [88.9, 23.8], [89.1, 21.6], [87.5, 21.6], [86.8, 24.3], [87.8, 25.2], [88.2, 27.2]]]
      }
    },
    {
      "type": "Feature",
      "properties": { "code": "JH", "name": "Jharkhand" },
      "geometry": {
        "type": "Polygon",
        "coordinates": [[[83.3, 24.5], [87.8, 25.2], [86.8, 24.3], [87.5, 22.0], [84.1, 22.0], [83.3, 24.5]]]
      }
    },
    {
      "type": "Feature",
      "properties": { "code": "OD", "name": "Odisha" },
      "geometry": {
        "type": "Polygon",
        "coordinates": [[[84.1, 22.5], [87.5, 21.6], [85.0, 19.1], [82.6, 17.8], [81.4, 18.2], [82.5, 20.8], [84.1, 22.5]]]
      }
    },
    {
      "type": "Feature",
      "properties": { "code": "CT", "name": "Chhattisgarh" },
      "geometry": {
        "type": "Polygon",
        "coordinates": [[[81.3, 24.1], [83.5, 24.1], [84.1, 22.0], [82.5, 20.8], [81.4, 18.2], [80.3, 18.8], [80.5, 22.2], [81.3, 24.1]]]
      }
    },
    {
      "type": "Feature",
      "properties": { "code": "MP", "name": "Madhya Pradesh" },
      "geometry": {
        "type": "Polygon",
        "coordinates": [[[74.0, 26.9], [78.2, 26.8], [82.5, 24.0], [81.3, 24.1], [80.5, 22.2], [76.5, 21.1], [74.0, 22.0], [74.0, 26.9]]]
      }
    },
    {
      "type": "Feature",
      "properties": { "code": "GJ", "name": "Gujarat" },
      "geometry": {
        "type": "Polygon",
        "coordinates": [[[68.2, 23.7], [71.0, 24.6], [74.0, 24.0], [74.0, 22.0], [73.2, 20.2], [72.6, 21.2], [70.4, 20.7], [68.9, 22.5], [68.2, 23.7]]]
      }
    },
    {
      "type": "Feature",
      "properties": { "code": "DN", "name": "Dadra & Nagar Haveli and Daman & Diu" },
      "geometry": {
        "type": "Polygon",
        "coordinates": [[[72.8, 20.4], [73.1, 20.4], [73.1, 20.1], [72.8, 20.1], [72.8, 20.4]]]
      }
    },
    {
      "type": "Feature",
      "properties": { "code": "MH", "name": "Maharashtra" },
      "geometry": {
        "type": "Polygon",
        "coordinates": [[[72.6, 20.2], [74.0, 22.0], [76.5, 21.1], [80.5, 22.2], [80.3, 18.8], [77.5, 15.8], [73.5, 15.8], [72.8, 18.9], [72.6, 20.2]]]
      }
    },
    {
      "type": "Feature",
      "properties": { "code": "GA", "name": "Goa" },
      "geometry": {
        "type": "Polygon",
        "coordinates": [[[73.6, 15.8], [74.3, 15.8], [74.3, 14.9], [73.6, 14.9], [73.6, 15.8]]]
      }
    },
    {
      "type": "Feature",
      "properties": { "code": "KA", "name": "Karnataka" },
      "geometry": {
        "type": "Polygon",
        "coordinates": [[[74.1, 18.5], [77.5, 18.0], [78.5, 13.8], [77.0, 11.6], [74.8, 12.8], [74.1, 15.5], [74.1, 18.5]]]
      }
    },
    {
      "type": "Feature",
      "properties": { "code": "TG", "name": "Telangana" },
      "geometry": {
        "type": "Polygon",
        "coordinates": [[[77.2, 19.9], [79.9, 19.9], [81.3, 17.8], [79.8, 15.8], [77.2, 16.0], [77.2, 19.9]]]
      }
    },
    {
      "type": "Feature",
      "properties": { "code": "AP", "name": "Andhra Pradesh" },
      "geometry": {
        "type": "Polygon",
        "coordinates": [[[77.2, 16.0], [79.8, 15.8], [81.3, 17.8], [82.6, 17.8], [80.2, 13.5], [78.2, 12.7], [78.5, 13.8], [77.2, 16.0]]]
      }
    },
    {
      "type": "Feature",
      "properties": { "code": "TN", "name": "Tamil Nadu" },
      "geometry": {
        "type": "Polygon",
        "coordinates": [[[77.0, 11.6], [78.2, 12.7], [80.2, 13.5], [79.8, 10.3], [77.5, 8.1], [77.0, 8.5], [76.2, 10.2], [77.0, 11.6]]]
      }
    },
    {
      "type": "Feature",
      "properties": { "code": "KL", "name": "Kerala" },
      "geometry": {
        "type": "Polygon",
        "coordinates": [[[74.8, 12.8], [77.0, 11.6], [76.2, 10.2], [77.0, 8.5], [76.5, 8.3], [74.8, 12.8]]]
      }
    },
    {
      "type": "Feature",
      "properties": { "code": "PY", "name": "Puducherry" },
      "geometry": {
        "type": "Polygon",
        "coordinates": [[[79.78, 11.98], [79.88, 11.98], [79.88, 11.88], [79.78, 11.88], [79.78, 11.98]]]
      }
    },
    {
      "type": "Feature",
      "properties": { "code": "AS", "name": "Assam" },
      "geometry": {
        "type": "Polygon",
        "coordinates": [[[89.7, 26.5], [92.0, 27.0], [95.8, 27.9], [95.3, 26.0], [92.8, 24.3], [89.7, 26.5]]]
      }
    },
    {
      "type": "Feature",
      "properties": { "code": "AR", "name": "Arunachal Pradesh" },
      "geometry": {
        "type": "Polygon",
        "coordinates": [[[91.6, 27.5], [94.5, 29.4], [97.4, 28.2], [96.0, 26.8], [91.6, 27.5]]]
      }
    },
    {
      "type": "Feature",
      "properties": { "code": "NL", "name": "Nagaland" },
      "geometry": {
        "type": "Polygon",
        "coordinates": [[[93.3, 26.9], [95.2, 27.1], [95.0, 25.6], [93.3, 25.6], [93.3, 26.9]]]
      }
    },
    {
      "type": "Feature",
      "properties": { "code": "MN", "name": "Manipur" },
      "geometry": {
        "type": "Polygon",
        "coordinates": [[[93.0, 25.6], [94.8, 25.6], [94.5, 23.8], [93.0, 23.8], [93.0, 25.6]]]
      }
    },
    {
      "type": "Feature",
      "properties": { "code": "MZ", "name": "Mizoram" },
      "geometry": {
        "type": "Polygon",
        "coordinates": [[[92.2, 24.5], [93.4, 24.5], [93.2, 21.9], [92.2, 21.9], [92.2, 24.5]]]
      }
    },
    {
      "type": "Feature",
      "properties": { "code": "TR", "name": "Tripura" },
      "geometry": {
        "type": "Polygon",
        "coordinates": [[[91.1, 24.5], [92.3, 24.5], [91.9, 22.9], [91.1, 22.9], [91.1, 24.5]]]
      }
    },
    {
      "type": "Feature",
      "properties": { "code": "ML", "name": "Meghalaya" },
      "geometry": {
        "type": "Polygon",
        "coordinates": [[[89.8, 25.9], [92.8, 25.9], [92.8, 25.0], [89.8, 25.0], [89.8, 25.9]]]
      }
    },
    {
      "type": "Feature",
      "properties": { "code": "AN", "name": "Andaman & Nicobar Islands" },
      "geometry": {
        "type": "Polygon",
        "coordinates": [[[92.2, 13.7], [93.0, 13.7], [93.9, 6.8], [92.2, 6.8], [92.2, 13.7]]]
      }
    },
    {
      "type": "Feature",
      "properties": { "code": "LD", "name": "Lakshadweep" },
      "geometry": {
        "type": "Polygon",
        "coordinates": [[[71.5, 12.4], [73.7, 12.4], [73.7, 8.2], [71.5, 8.2], [71.5, 12.4]]]
      }
    }
  ]
}
